[{"OBJECT_NAME":"COSMOS 2529 (757)","OBJECT_ID":"2018-086A","EPOCH":"2026-03-25T04:24:38.012256","MEAN_MOTION":2.13101936,"ECCENTRICITY":0.00087146,"INCLINATION":64.2947,"RA_OF_ASC_NODE":195.4281,"ARG_OF_PERICENTER":253.5032,"MEAN_ANOMALY":106.4055,"EPHEMERIS_TYPE":0,"CLASSIFICATION_TYPE":"U","NORAD_CAT_ID":43687,"ELEMENT_SET_NO":999,"REV_AT_EPOCH":5749,"BSTAR":0,"MEAN_MOTION_DOT":5.0e-8,"MEAN_MOTION_DDOT":0},{"OBJECT_NAME":"COSMOS 2534 (758)","OBJECT_ID":"2019-030A","EPOCH":"2026-03-26T22:51:06.084864","MEAN_MOTION":2.13102185,"ECCENTRICITY":0.0010587,"INCLINATION":64.3675,"RA_OF_ASC_NODE":195.3834,"ARG_OF_PERICENTER":278.5139,"MEAN_ANOMALY":132.529,"EPHEMERIS_TYPE":0,"CLASSIFICATION_TYPE":"U","NORAD_CAT_ID":44299,"ELEMENT_SET_NO":999,"REV_AT_EPOCH":5317,"BSTAR":0,"MEAN_MOTION_DOT":-2.2e-7,"MEAN_MOTION_DDOT":0},{"OBJECT_NAME":"COSMOS 2544 (759)","OBJECT_ID":"2019-088A","EPOCH":"2026-03-23T14:58:07.497696","MEAN_MOTION":2.1310202,"ECCENTRICITY":0.00157911,"INCLINATION":65.5174,"RA_OF_ASC_NODE":76.5851,"ARG_OF_PERICENTER":260.6166,"MEAN_ANOMALY":99.2133,"EPHEMERIS_TYPE":0,"CLASSIFICATION_TYPE":"U","NORAD_CAT_ID":44850,"ELEMENT_SET_NO":999,"REV_AT_EPOCH":4889,"BSTAR":0,"MEAN_MOTION_DOT":3.6e-7,"MEAN_MOTION_DDOT":0},{"OBJECT_NAME":"COSMOS 2545 (760)","OBJECT_ID":"2020-018A","EPOCH":"2026-03-26T03:58:22.686240","MEAN_MOTION":2.13102438,"ECCENTRICITY":0.00074746,"INCLINATION":64.4042,"RA_OF_ASC_NODE":315.3386,"ARG_OF_PERICENTER":246.9709,"MEAN_ANOMALY":113.0018,"EPHEMERIS_TYPE":0,"CLASSIFICATION_TYPE":"U","NORAD_CAT_ID":45358,"ELEMENT_SET_NO":999,"REV_AT_EPOCH":4689,"BSTAR":0,"MEAN_MOTION_DOT":-2.8e-7,"MEAN_MOTION_DDOT":0},{"OBJECT_NAME":"COSMOS 2547 (705K)","OBJECT_ID":"2020-075A","EPOCH":"2026-03-27T18:17:20.941152","MEAN_MOTION":2.13100219,"ECCENTRICITY":0.00073709,"INCLINATION":64.5985,"RA_OF_ASC_NODE":195.1905,"ARG_OF_PERICENTER":232.5213,"MEAN_ANOMALY":127.4084,"EPHEMERIS_TYPE":0,"CLASSIFICATION_TYPE":"U","NORAD_CAT_ID":46805,"ELEMENT_SET_NO":999,"REV_AT_EPOCH":4217,"BSTAR":0,"MEAN_MOTION_DOT":-3.1e-7,"MEAN_MOTION_DDOT":0},{"OBJECT_NAME":"COSMOS 2557 (706K)","OBJECT_ID":"2022-075A","EPOCH":"2026-03-28T09:30:36.463104","MEAN_MOTION":2.13101758,"ECCENTRICITY":0.0010963,"INCLINATION":64.3446,"RA_OF_ASC_NODE":317.3335,"ARG_OF_PERICENTER":283.619,"MEAN_ANOMALY":76.3135,"EPHEMERIS_TYPE":0,"CLASSIFICATION_TYPE":"U","NORAD_CAT_ID":52984,"ELEMENT_SET_NO":999,"REV_AT_EPOCH":2899,"BSTAR":0,"MEAN_MOTION_DOT":-3.1e-7,"MEAN_MOTION_DDOT":0},{"OBJECT_NAME":"COSMOS 2559 (707K)","OBJECT_ID":"2022-130A","EPOCH":"2026-03-27T06:39:07.070688","MEAN_MOTION":2.13101261,"ECCENTRICITY":0.0010826,"INCLINATION":64.318,"RA_OF_ASC_NODE":317.4582,"ARG_OF_PERICENTER":178.2697,"MEAN_ANOMALY":181.7868,"EPHEMERIS_TYPE":0,"CLASSIFICATION_TYPE":"U","NORAD_CAT_ID":54031,"ELEMENT_SET_NO":999,"REV_AT_EPOCH":2694,"BSTAR":0,"MEAN_MOTION_DOT":-3.1e-7,"MEAN_MOTION_DDOT":0},{"OBJECT_NAME":"COSMOS 2564 (761)","OBJECT_ID":"2022-161A","EPOCH":"2026-03-28T12:40:52.220352","MEAN_MOTION":2.13101826,"ECCENTRICITY":0.00101426,"INCLINATION":64.7402,"RA_OF_ASC_NODE":195.3871,"ARG_OF_PERICENTER":214.6858,"MEAN_ANOMALY":145.2434,"EPHEMERIS_TYPE":0,"CLASSIFICATION_TYPE":"U","NORAD_CAT_ID":54377,"ELEMENT_SET_NO":999,"REV_AT_EPOCH":2591,"BSTAR":0,"MEAN_MOTION_DOT":-3.5e-7,"MEAN_MOTION_DDOT":0},{"OBJECT_NAME":"COSMOS 2569 (703K)","OBJECT_ID":"2023-114A","EPOCH":"2026-03-28T12:59:13.416000","MEAN_MOTION":2.13103807,"ECCENTRICITY":0.00129072,"INCLINATION":65.2574,"RA_OF_ASC_NODE":75.3385,"ARG_OF_PERICENTER":293.4527,"MEAN_ANOMALY":66.4203,"EPHEMERIS_TYPE":0,"CLASSIFICATION_TYPE":"U","NORAD_CAT_ID":57517,"ELEMENT_SET_NO":999,"REV_AT_EPOCH":2054,"BSTAR":0,"MEAN_MOTION_DOT":4.1e-7,"MEAN_MOTION_DDOT":0},{"OBJECT_NAME":"COSMOS 2584 (704K)","OBJECT_ID":"2025-042A","EPOCH":"2026-03-27T23:00:36.984096","MEAN_MOTION":2.13103439,"ECCENTRICITY":0.00074322,"INCLINATION":65.039,"RA_OF_ASC_NODE":75.5619,"ARG_OF_PERICENTER":238.763,"MEAN_ANOMALY":121.1744,"EPHEMERIS_TYPE":0,"CLASSIFICATION_TYPE":"U","NORAD_CAT_ID":63130,"ELEMENT_SET_NO":999,"REV_AT_EPOCH":831,"BSTAR":0,"MEAN_MOTION_DOT":4.4e-7,"MEAN_MOTION_DDOT":0},{"OBJECT_NAME":"COSMOS 2596 (708K)","OBJECT_ID":"2025-206B","EPOCH":"2026-03-27T14:45:45.838368","MEAN_MOTION":2.13100192,"ECCENTRICITY":0.0012287,"INCLINATION":64.6808,"RA_OF_ASC_NODE":317.8263,"ARG_OF_PERICENTER":316.8794,"MEAN_ANOMALY":256.7022,"EPHEMERIS_TYPE":0,"CLASSIFICATION_TYPE":"U","NORAD_CAT_ID":65590,"ELEMENT_SET_NO":999,"REV_AT_EPOCH":417,"BSTAR":0,"MEAN_MOTION_DOT":-3.1e-7,"MEAN_MOTION_DDOT":0}]
